{"type": "FeatureCollection", "features": [ {"type": "Feature", "properties": {"norad_id": 35073, "name": "COSMOS 2251 DEB", "group": "cosmos-2251-debris", "lat": 73.59486828538046, "lon": 92.6380841007471, "alt_km": 554.0512098213685, "timestamp": "2025-12-03T08:58:46.398965+00:00", "meta": {"OBJECT_NAME": "COSMOS 2251 DEB", "OBJECT_ID": "1993-036AJC", "EPOCH": "2025-11-29T08:29:21.429600", "MEAN_MOTION": 14.99364384, "ECCENTRICITY": 0.00097336, "INCLINATION": 74.0024, "RA_OF_ASC_NODE": 357.8403, "ARG_OF_PERICENTER": 101.5288, "MEAN_ANOMALY": 258.6992, "EPHEMERIS_TYPE": 0, "CLASSIFICATION_TYPE": "U", "NORAD_CAT_ID": 35073, "ELEMENT_SET_NO": 999, "REV_AT_EPOCH": 67278, "BSTAR": 0.00211185, "MEAN_MOTION_DOT": 0.00025921, "MEAN_MOTION_DDOT": 0}, "tle": {"line1": "1 35073U 93036AJC 25333.35372025  .00025921  00000+0  21119-2 0  9996", "line2": "2 35073  74.0024 357.8403 0009733 101.5288 258.6992 14.99364384672786"}}, "geometry": {"type": "Point", "coordinates": [92.6380841007471, 73.59486828538046]}}, {"type": "Feature", "properties": {"norad_id": 35280, "name": "COSMOS 2251 DEB", "group": "cosmos-2251-debris", "lat": -70.63252727344407, "lon": -41.32216692044166, "alt_km": 36.37900225554222, "timestamp": "2025-12-03T08:58:46.398975+00:00", "meta": {"OBJECT_NAME": "COSMOS 2251 DEB", "OBJECT_ID": "1993-036AJJ", "EPOCH": "2025-11-12T05:44:02.487552", "MEAN_MOTION": 15.48119691, "ECCENTRICITY": 0.00063876, "INCLINATION": 73.9815, "RA_OF_ASC_NODE": 131.656, "ARG_OF_PERICENTER": 153.4254, "MEAN_ANOMALY": 206.7286, "EPHEMERIS_TYPE": 0, "CLASSIFICATION_TYPE": "U", "NORAD_CAT_ID": 35280, "ELEMENT_SET_NO": 999, "REV_AT_EPOCH": 87074, "BSTAR": 0.018411483, "MEAN_MOTION_DOT": 0.01068411, "MEAN_MOTION_DDOT": 0}, "tle": {"line1": "1 35280U 93036AJJ 25316.23891768  .01068411  00000+0  18411-1 0  9996", "line2": "2 35280  73.9815 131.6560 0006387 153.4254 206.7286 15.48119691870745"}}, "geometry": {"type": "Point", "coordinates": [-41.32216692044166, -70.63252727344407]}}, {"type": "Feature", "properties": {"norad_id": 35284, "name": "COSMOS 2251 DEB", "group": "cosmos-2251-debris", "lat": 68.28881199637316, "lon": 55.75497597544506, "alt_km": 760.1228542551062, "timestamp": "2025-12-03T08:58:46.398985+00:00", "meta": {"OBJECT_NAME": "COSMOS 2251 DEB", "OBJECT_ID": "1993-036AJN", "EPOCH": "2025-12-01T13:38:31.155360", "MEAN_MOTION": 14.382963, "ECCENTRICITY": 0.00163281, "INCLINATION": 74.049, "RA_OF_ASC_NODE": 284.9919, "ARG_OF_PERICENTER": 3.7139, "MEAN_ANOMALY": 114.9177, "EPHEMERIS_TYPE": 0, "CLASSIFICATION_TYPE": "U", "NORAD_CAT_ID": 35284, "ELEMENT_SET_NO": 999, "REV_AT_EPOCH": 65365, "BSTAR": 0.00020439824, "MEAN_MOTION_DOT": 5.97e-06, "MEAN_MOTION_DDOT": 0}, "tle": {"line1": "1 35284U 93036AJN 25335.56841615  .00000597  00000+0  20440-3 0  9990", "line2": "2 35284  74.0490 284.9919 0016328   3.7139 114.9177 14.38296300653654"}}, "geometry": {"type": "Point", "coordinates": [55.75497597544506, 68.28881199637316]}}, {"type": "Feature", "properties": {"norad_id": 35287, "name": "COSMOS 2251 DEB", "group": "cosmos-2251-debris", "lat": -14.002688919714164, "lon": -70.74992017785667, "alt_km": 766.4276345200569, "timestamp": "2025-12-03T08:58:46.398996+00:00", "meta": {"OBJECT_NAME": "COSMOS 2251 DEB", "OBJECT_ID": "1993-036AJR", "EPOCH": "2025-12-03T04:07:48.018720", "MEAN_MOTION": 14.36361721, "ECCENTRICITY": 0.001717, "INCLINATION": 74.0299, "RA_OF_ASC_NODE": 293.7164, "ARG_OF_PERICENTER": 33.1224, "MEAN_ANOMALY": 348.1223, "EPHEMERIS_TYPE": 0, "CLASSIFICATION_TYPE": "U", "NORAD_CAT_ID": 35287, "ELEMENT_SET_NO": 999, "REV_AT_EPOCH": 86755, "BSTAR": 0.00020252, "MEAN_MOTION_DOT": 5.67e-06, "MEAN_MOTION_DDOT": 0}, "tle": {"line1": "1 35287U 93036AJR 25337.17208355  .00000567  00000+0  20252-3 0  9998", "line2": "2 35287  74.0299 293.7164 0017170  33.1224 348.1223 14.36361721867559"}}, "geometry": {"type": "Point", "coordinates": [-70.74992017785667, -14.002688919714164]}}, {"type": "Feature", "properties": {"norad_id": 35288, "name": "COSMOS 2251 DEB", "group": "cosmos-2251-debris", "lat": -55.273467948652296, "lon": -122.16617575821752, "alt_km": 658.4161942602932, "timestamp": "2025-12-03T08:58:46.399006+00:00", "meta": {"OBJECT_NAME": "COSMOS 2251 DEB", "OBJECT_ID": "1993-036AJS", "EPOCH": "2025-12-02T12:13:38.607168", "MEAN_MOTION": 14.65270796, "ECCENTRICITY": 0.00396065, "INCLINATION": 73.9516, "RA_OF_ASC_NODE": 34.9675, "ARG_OF_PERICENTER": 269.719, "MEAN_ANOMALY": 89.9439, "EPHEMERIS_TYPE": 0, "CLASSIFICATION_TYPE": "U", "NORAD_CAT_ID": 35288, "ELEMENT_SET_NO": 999, "REV_AT_EPOCH": 87728, "BSTAR": 0.0014116495, "MEAN_MOTION_DOT": 7.675e-05, "MEAN_MOTION_DDOT": 0}, "tle": {"line1": "1 35288U 93036AJS 25336.50947462  .00007675  00000+0  14116-2 0  9992", "line2": "2 35288  73.9516  34.9675 0039606 269.7190  89.9439 14.65270796877282"}}, "geometry": {"type": "Point", "coordinates": [-122.16617575821752, -55.273467948652296]}}, {"type": "Feature", "properties": {"norad_id": 35290, "name": "COSMOS 2251 DEB", "group": "cosmos-2251-debris", "lat": 19.312076739251804, "lon": 83.69113137799502, "alt_km": 632.0955826809522, "timestamp": "2025-12-03T08:58:46.399016+00:00", "meta": {"OBJECT_NAME": "COSMOS 2251 DEB", "OBJECT_ID": "1993-036AJU", "EPOCH": "2025-12-01T06:35:33.142560", "MEAN_MOTION": 14.79807104, "ECCENTRICITY": 0.00037082, "INCLINATION": 74.0051, "RA_OF_ASC_NODE": 82.0624, "ARG_OF_PERICENTER": 206.8807, "MEAN_ANOMALY": 153.2178, "EPHEMERIS_TYPE": 0, "CLASSIFICATION_TYPE": "U", "NORAD_CAT_ID": 35290, "ELEMENT_SET_NO": 999, "REV_AT_EPOCH": 87788, "BSTAR": 0.002855926, "MEAN_MOTION_DOT": 0.00021548, "MEAN_MOTION_DDOT": 0}, "tle": {"line1": "1 35290U 93036AJU 25335.27468915  .00021548  00000+0  28559-2 0  9990", "line2": "2 35290  74.0051  82.0624 0003708 206.8807 153.2178 14.79807104877885"}}, "geometry": {"type": "Point", "coordinates": [83.69113137799502, 19.312076739251804]}}, {"type": "Feature", "properties": {"norad_id": 35432, "name": "COSMOS 2251 DEB", "group": "cosmos-2251-debris", "lat": -54.66194870080868, "lon": 11.412998619133198, "alt_km": 508.5396489351315, "timestamp": "2025-12-03T08:58:46.399026+00:00", "meta": {"OBJECT_NAME": "COSMOS 2251 DEB", "OBJECT_ID": "1993-036AKA", "EPOCH": "2025-12-02T12:41:27.608064", "MEAN_MOTION": 15.19283243, "ECCENTRICITY": 0.00119971, "INCLINATION": 74.023, "RA_OF_ASC_NODE": 37.0177, "ARG_OF_PERICENTER": 353.9321, "MEAN_ANOMALY": 6.1728, "EPHEMERIS_TYPE": 0, "CLASSIFICATION_TYPE": "U", "NORAD_CAT_ID": 35432, "ELEMENT_SET_NO": 999, "REV_AT_EPOCH": 87348, "BSTAR": 0.0074321278, "MEAN_MOTION_DOT": 0.00160594, "MEAN_MOTION_DDOT": 0}, "tle": {"line1": "1 35432U 93036AKA 25336.52879176  .00160594  00000+0  74321-2 0  9995", "line2": "2 35432  74.0230  37.0177 0011997 353.9321   6.1728 15.19283243873485"}}, "geometry": {"type": "Point", "coordinates": [11.412998619133198, -54.66194870080868]}}, {"type": "Feature", "properties": {"norad_id": 35433, "name": "COSMOS 2251 DEB", "group": "cosmos-2251-debris", "lat": 20.118688647092274, "lon": 169.5915582274024, "alt_km": 780.3129311387374, "timestamp": "2025-12-03T08:58:46.399036+00:00", "meta": {"OBJECT_NAME": "COSMOS 2251 DEB", "OBJECT_ID": "1993-036AKB", "EPOCH": "2025-11-29T08:56:22.068960", "MEAN_MOTION": 14.34715508, "ECCENTRICITY": 0.00253594, "INCLINATION": 74.0352, "RA_OF_ASC_NODE": 2.9393, "ARG_OF_PERICENTER": 62.2545, "MEAN_ANOMALY": 316.1289, "EPHEMERIS_TYPE": 0, "CLASSIFICATION_TYPE": "U", "NORAD_CAT_ID": 35433, "ELEMENT_SET_NO": 999, "REV_AT_EPOCH": 86389, "BSTAR": 0.00023326055, "MEAN_MOTION_DOT": 6.37e-06, "MEAN_MOTION_DDOT": 0}, "tle": {"line1": "1 35433U 93036AKB 25333.37247765  .00000637  00000+0  23326-3 0  9990", "line2": "2 35433  74.0352   2.9393 0025359  62.2545 316.1289 14.34715508863897"}}, "geometry": {"type": "Point", "coordinates": [169.5915582274024, 20.118688647092274]}}, {"type": "Feature", "properties": {"norad_id": 35434, "name": "COSMOS 2251 DEB", "group": "cosmos-2251-debris", "lat": 19.22926813955411, "lon": -123.74106869808698, "alt_km": 791.521304159065, "timestamp": "2025-12-03T08:58:46.399047+00:00", "meta": {"OBJECT_NAME": "COSMOS 2251 DEB", "OBJECT_ID": "1993-036AKC", "EPOCH": "2025-11-30T00:02:53.789280", "MEAN_MOTION": 14.25623606, "ECCENTRICITY": 0.00876191, "INCLINATION": 74.0414, "RA_OF_ASC_NODE": 236.6139, "ARG_OF_PERICENTER": 309.9857, "MEAN_ANOMALY": 49.362, "EPHEMERIS_TYPE": 0, "CLASSIFICATION_TYPE": "U", "NORAD_CAT_ID": 35434, "ELEMENT_SET_NO": 999, "REV_AT_EPOCH": 85936, "BSTAR": 0.00077223856, "MEAN_MOTION_DOT": 1.879e-05, "MEAN_MOTION_DDOT": 0}, "tle": {"line1": "1 35434U 93036AKC 25334.00201145  .00001879  00000+0  77224-3 0  9999", "line2": "2 35434  74.0414 236.6139 0087619 309.9857  49.3620 14.25623606859363"}}, "geometry": {"type": "Point", "coordinates": [-123.74106869808698, 19.22926813955411]}}, {"type": "Feature", "properties": {"norad_id": 35435, "name": "COSMOS 2251 DEB", "group": "cosmos-2251-debris", "lat": -57.89893279410438, "lon": -30.307117417682804, "alt_km": 636.676583785481, "timestamp": "2025-12-03T08:58:46.399056+00:00", "meta": {"OBJECT_NAME": "COSMOS 2251 DEB", "OBJECT_ID": "1993-036AKD", "EPOCH": "2025-12-01T04:42:29.570112", "MEAN_MOTION": 14.77856988, "ECCENTRICITY": 0.0009617, "INCLINATION": 74.0095, "RA_OF_ASC_NODE": 126.7727, "ARG_OF_PERICENTER": 217.2149, "MEAN_ANOMALY": 321.5063, "EPHEMERIS_TYPE": 0, "CLASSIFICATION_TYPE": "U", "NORAD_CAT_ID": 35435, "ELEMENT_SET_NO": 999, "REV_AT_EPOCH": 87368, "BSTAR": 0.0028899, "MEAN_MOTION_DOT": 0.00020833, "MEAN_MOTION_DDOT": 0}, "tle": {"line1": "1 35435U 93036AKD 25335.19617558  .00020833  00000+0  28899-2 0  9994", "line2": "2 35435  74.0095 126.7727 0009617 217.2149 321.5063 14.77856988873683"}}, "geometry": {"type": "Point", "coordinates": [-30.307117417682804, -57.89893279410438]}}]}